[{"OBJECT_NAME":"ONEWEB-0714","OBJECT_ID":"2022-166AR","EPOCH":"2026-03-09T22:27:53.159616","MEAN_MOTION":13.21824451,"ECCENTRICITY":0.00014639,"INCLINATION":87.9164,"RA_OF_ASC_NODE":263.772,"ARG_OF_PERICENTER":99.0677,"MEAN_ANOMALY":261.0623,"EPHEMERIS_TYPE":0,"CLASSIFICATION_TYPE":"U","NORAD_CAT_ID":54681,"ELEMENT_SET_NO":999,"REV_AT_EPOCH":15842,"BSTAR":9.5847636e-5,"MEAN_MOTION_DOT":5.3e-7,"MEAN_MOTION_DDOT":0},{"OBJECT_NAME":"THORAD AGENA D DEB","OBJECT_ID":"1970-025BG","EPOCH":"2026-03-09T18:54:55.456704","MEAN_MOTION":13.34964089,"ECCENTRICITY":0.01205285,"INCLINATION":100.4251,"RA_OF_ASC_NODE":108.4738,"ARG_OF_PERICENTER":326.1799,"MEAN_ANOMALY":94.8419,"EPHEMERIS_TYPE":0,"CLASSIFICATION_TYPE":"U","NORAD_CAT_ID":4683,"ELEMENT_SET_NO":999,"REV_AT_EPOCH":71422,"BSTAR":0.0005917531,"MEAN_MOTION_DOT":2.63e-6,"MEAN_MOTION_DDOT":0}]
